OBJECT_NAME,OBJECT_ID,EPOCH,MEAN_MOTION,ECCENTRICITY,INCLINATION,RA_OF_ASC_NODE,ARG_OF_PERICENTER,MEAN_ANOMALY,EPHEMERIS_TYPE,CLASSIFICATION_TYPE,NORAD_CAT_ID,ELEMENT_SET_NO,REV_AT_EPOCH,BSTAR,MEAN_MOTION_DOT,MEAN_MOTION_DDOT
ONEWEB-0063,2020-020AA,2026-06-14T02:55:48.357408,13.11419934,.0002135,87.8899,21.6786,86.1437,273.9935,0,U,45448,999,30229,.12799E-2,.466E-5,0
ONEWEB-0019,2020-020AB,2026-06-14T03:51:33.380928,13.11414887,.0001706,87.8892,21.6572,89.1859,270.9465,0,U,45449,999,30214,-.12158E-2,-.418E-5,0
ONEWEB-0094,2020-020AC,2026-06-14T02:08:56.828832,13.17647426,.0001632,87.9145,6.4651,85.1012,275.0306,0,U,45450,999,30590,.99775E-4,.52E-6,0
ONEWEB-0087,2020-020AD,2026-06-14T03:10:04.164096,13.11416488,.0001717,87.8907,21.6503,75.8005,284.3314,0,U,45451,999,30218,.1432E-2,.52E-5,0
ONEWEB-0082,2020-020AE,2026-06-14T03:05:12.022368,13.11417990,.0001908,87.8898,21.6679,70.5713,289.5621,0,U,45452,999,30227,.15685E-2,.569E-5,0
ONEWEB-0050,2020-020AF,2026-06-14T04:31:00.771168,14.90371193,.0003617,88.9301,233.6175,33.8639,326.2820,0,U,45453,999,33993,.25865E-3,.2537E-4,0
ONEWEB-0034,2020-020AG,2026-06-14T02:09:24.521760,13.11423504,.0001737,87.8897,21.6849,84.9654,275.1672,0,U,45454,999,30218,-.27046E-2,-.946E-5,0
ONEWEB-0060,2020-020AH,2026-06-14T02:54:23.313024,13.11418619,.0001426,87.8891,21.6770,50.5662,309.5592,0,U,45455,999,30214,.13077E-2,.476E-5,0
ONEWEB-0086,2020-020AJ,2026-06-14T02:23:39.717600,13.11416849,.0001059,87.8900,21.6768,76.6961,283.4285,0,U,45456,999,30220,-.10775E-2,-.369E-5,0
ONEWEB-0088,2020-020AK,2026-06-14T03:41:59.474112,13.11416154,.0002194,87.8906,21.6380,80.8124,279.3252,0,U,45457,999,30214,-.65203E-3,-.218E-5,0
ONEWEB-0102,2020-100A,2026-06-14T02:01:37.750080,13.12443090,.0001574,87.8937,351.2926,96.5656,263.5652,0,U,47258,999,26432,-.16493E-2,-.581E-5,0
ONEWEB-0109,2020-100B,2026-06-13T22:34:16.156992,13.12444841,.0001808,87.8949,351.3044,95.5238,264.6097,0,U,47259,999,26413,-.57474E-3,-.194E-5,0
ONEWEB-0110,2020-100C,2026-06-13T21:23:31.964352,13.12443895,.0001541,87.8948,351.2985,87.5146,272.6159,0,U,47260,999,26429,.11766E-2,.436E-5,0
ONEWEB-0111,2020-100D,2026-06-14T01:46:59.526912,13.12440445,.0001768,87.8948,351.2804,87.1544,272.9787,0,U,47261,999,26415,-.90787E-3,-.314E-5,0
ONEWEB-0114,2020-100E,2026-06-13T22:51:21.087360,13.12445023,.0002003,87.8949,351.3024,96.2409,263.8948,0,U,47262,999,26409,.36767E-3,.145E-5,0
ONEWEB-0117,2020-100F,2026-06-13T22:39:09.446976,13.12444310,.0001763,87.8946,351.2952,90.5237,269.6093,0,U,47263,999,26410,-.39825E-3,-.131E-5,0
ONEWEB-0118,2020-100G,2026-06-14T01:17:44.160576,13.12441994,.0002134,87.8947,351.2757,92.5857,267.5516,0,U,47264,999,26431,.76029E-3,.286E-5,0
ONEWEB-0119,2020-100H,2026-06-14T01:54:19.402272,13.12442826,.0001809,87.8937,351.2875,90.6454,269.4882,0,U,47265,999,26429,-.1191E-2,-.416E-5,0
ONEWEB-0120,2020-100J,2026-06-13T22:49:07.245120,13.12445067,.0001821,87.8938,351.3147,96.2953,263.8383,0,U,47266,999,26430,.28721E-3,.116E-5,0
ONEWEB-0121,2020-100K,2026-06-13T22:31:50.034720,13.12444345,.0001763,87.8950,351.3029,80.3897,279.7430,0,U,47267,999,26421,-.84069E-3,-.29E-5,0
ONEWEB-0122,2020-100L,2026-06-14T02:02:52.204416,13.12443178,.0001691,87.8950,351.2777,95.4564,264.6757,0,U,47268,999,26414,-.11757E-2,-.41E-5,0
ONEWEB-0123,2020-100M,2026-06-14T01:56:45.564288,13.12443695,.0001938,87.8938,351.2863,90.6118,269.5233,0,U,47269,999,26428,-.12121E-2,-.423E-5,0
ONEWEB-0124,2020-100N,2026-06-14T01:42:07.443936,13.12442498,.0001794,87.8936,351.2915,87.0428,273.0906,0,U,47270,999,26416,-.69807E-3,-.238E-5,0
ONEWEB-0125,2020-100P,2026-06-14T01:10:24.557376,13.12444086,.0001992,87.8948,351.2789,82.2597,277.8757,0,U,47271,999,26422,.11541E-2,.428E-5,0
ONEWEB-0126,2020-100Q,2026-06-14T01:39:53.745984,13.12441605,.0001856,87.8941,351.2907,94.2743,265.8598,0,U,47272,999,26429,-.56493E-3,-.191E-5,0
ONEWEB-0127,2020-100R,2026-06-13T23:01:06.710880,13.12444855,.0001806,87.8937,351.3117,94.9173,265.2162,0,U,47273,999,26430,.10689E-2,.397E-5,0
ONEWEB-0128,2020-100S,2026-06-14T01:22:36.515712,13.12441726,.0001504,87.8936,351.3059,86.5762,273.5539,0,U,47274,999,26433,.62367E-3,.237E-5,0
ONEWEB-0129,2020-100T,2026-06-13T23:03:33.633216,13.12443705,.0002298,87.8946,351.2986,119.7870,240.3487,0,U,47275,999,26425,.11615E-2,.431E-5,0
ONEWEB-0130,2020-100U,2026-06-14T01:32:22.383744,13.12442123,.0001729,87.8949,351.2732,93.0113,267.1214,0,U,47276,999,26423,-.75874E-4,-.15E-6,0
ONEWEB-0131,2020-100V,2026-06-14T01:27:28.958112,13.12442693,.0001758,87.8937,351.2925,90.7659,269.3671,0,U,47277,999,26427,.30067E-3,.121E-5,0
