ONEWEB-0063             
1 45448U 20020AA  26165.12208747  .00000466  00000+0  12799-2 0  9995
2 45448  87.8899  21.6786 0002135  86.1437 273.9935 13.11419934302296
ONEWEB-0019             
1 45449U 20020AB  26165.16080302 -.00000418  00000+0 -12158-2 0  9993
2 45449  87.8892  21.6572 0001706  89.1859 270.9465 13.11414887302148
ONEWEB-0094             
1 45450U 20020AC  26165.08954663  .00000052  00000+0  99775-4 0  9990
2 45450  87.9145   6.4651 0001632  85.1012 275.0306 13.17647426305906
ONEWEB-0087             
1 45451U 20020AD  26165.13199264  .00000520  00000+0  14320-2 0  9996
2 45451  87.8907  21.6503 0001717  75.8005 284.3314 13.11416488302184
ONEWEB-0082             
1 45452U 20020AE  26165.12861137  .00000569  00000+0  15685-2 0  9999
2 45452  87.8898  21.6679 0001908  70.5713 289.5621 13.11417990302275
ONEWEB-0050             
1 45453U 20020AF  26165.18820337  .00002537  00000+0  25865-3 0  9992
2 45453  88.9301 233.6175 0003617  33.8639 326.2820 14.90371193339936
ONEWEB-0034             
1 45454U 20020AG  26165.08986715 -.00000946  00000+0 -27046-2 0  9991
2 45454  87.8897  21.6849 0001737  84.9654 275.1672 13.11423504302183
ONEWEB-0060             
1 45455U 20020AH  26165.12110316  .00000476  00000+0  13077-2 0  9998
2 45455  87.8891  21.6770 0001426  50.5662 309.5592 13.11418619302144
ONEWEB-0086             
1 45456U 20020AJ  26165.09976525 -.00000369  00000+0 -10775-2 0  9992
2 45456  87.8900  21.6768 0001059  76.6961 283.4285 13.11416849302205
ONEWEB-0088             
1 45457U 20020AK  26165.15416058 -.00000218  00000+0 -65203-3 0  9990
2 45457  87.8906  21.6380 0002194  80.8124 279.3252 13.11416154302141
ONEWEB-0102             
1 47258U 20100A   26165.08446470 -.00000581  00000+0 -16493-2 0  9992
2 47258  87.8937 351.2926 0001574  96.5656 263.5652 13.12443090264325
ONEWEB-0109             
1 47259U 20100B   26164.94046478 -.00000194  00000+0 -57474-3 0  9996
2 47259  87.8949 351.3044 0001808  95.5238 264.6097 13.12444841264135
ONEWEB-0110             
1 47260U 20100C   26164.89134218  .00000436  00000+0  11766-2 0  9992
2 47260  87.8948 351.2985 0001541  87.5146 272.6159 13.12443895264295
ONEWEB-0111             
1 47261U 20100D   26165.07430008 -.00000314  00000+0 -90787-3 0  9998
2 47261  87.8948 351.2804 0001768  87.1544 272.9787 13.12440445264158
ONEWEB-0114             
1 47262U 20100E   26164.95232740  .00000145  00000+0  36767-3 0  9996
2 47262  87.8949 351.3024 0002003  96.2409 263.8948 13.12445023264097
ONEWEB-0117             
1 47263U 20100F   26164.94385934 -.00000131  00000+0 -39825-3 0  9995
2 47263  87.8946 351.2952 0001763  90.5237 269.6093 13.12444310264107
ONEWEB-0118             
1 47264U 20100G   26165.05398334  .00000286  00000+0  76029-3 0  9993
2 47264  87.8947 351.2757 0002134  92.5857 267.5516 13.12441994264310
ONEWEB-0119             
1 47265U 20100H   26165.07939123 -.00000416  00000+0 -11910-2 0  9997
2 47265  87.8937 351.2875 0001809  90.6454 269.4882 13.12442826264290
ONEWEB-0120             
1 47266U 20100J   26164.95077830  .00000116  00000+0  28721-3 0  9996
2 47266  87.8938 351.3147 0001821  96.2953 263.8383 13.12445067264301
ONEWEB-0121             
1 47267U 20100K   26164.93877355 -.00000290  00000+0 -84069-3 0  9997
2 47267  87.8950 351.3029 0001763  80.3897 279.7430 13.12444345264218
ONEWEB-0122             
1 47268U 20100L   26165.08532644 -.00000410  00000+0 -11757-2 0  9991
2 47268  87.8950 351.2777 0001691  95.4564 264.6757 13.12443178264146
ONEWEB-0123             
1 47269U 20100M   26165.08108292 -.00000423  00000+0 -12121-2 0  9990
2 47269  87.8938 351.2863 0001938  90.6118 269.5233 13.12443695264287
ONEWEB-0124             
1 47270U 20100N   26165.07091949 -.00000238  00000+0 -69807-3 0  9999
2 47270  87.8936 351.2915 0001794  87.0428 273.0906 13.12442498264163
ONEWEB-0125             
1 47271U 20100P   26165.04889534  .00000428  00000+0  11541-2 0  9992
2 47271  87.8948 351.2789 0001992  82.2597 277.8757 13.12444086264228
ONEWEB-0126             
1 47272U 20100Q   26165.06937206 -.00000191  00000+0 -56493-3 0  9990
2 47272  87.8941 351.2907 0001856  94.2743 265.8598 13.12441605264290
ONEWEB-0127             
1 47273U 20100R   26164.95910545  .00000397  00000+0  10689-2 0  9997
2 47273  87.8937 351.3117 0001806  94.9173 265.2162 13.12444855264302
ONEWEB-0128             
1 47274U 20100S   26165.05736708  .00000237  00000+0  62367-3 0  9991
2 47274  87.8936 351.3059 0001504  86.5762 273.5539 13.12441726264330
ONEWEB-0129             
1 47275U 20100T   26164.96080594  .00000431  00000+0  11615-2 0  9991
2 47275  87.8946 351.2986 0002298 119.7870 240.3487 13.12443705264254
ONEWEB-0130             
1 47276U 20100U   26165.06414796 -.00000015  00000+0 -75874-4 0  9998
2 47276  87.8949 351.2732 0001729  93.0113 267.1214 13.12442123264235
ONEWEB-0131             
1 47277U 20100V   26165.06075183  .00000121  00000+0  30067-3 0  9992
2 47277  87.8937 351.2925 0001758  90.7659 269.3671 13.12442693264275
